[{"OBJECT_NAME":"COSMOS 2251 DEB","OBJECT_ID":"1993-036MT","EPOCH":"2026-04-27T05:18:56.049984","MEAN_MOTION":14.36746277,"ECCENTRICITY":0.00161457,"INCLINATION":74.0502,"RA_OF_ASC_NODE":35.4273,"ARG_OF_PERICENTER":75.1727,"MEAN_ANOMALY":82.4588,"EPHEMERIS_TYPE":0,"CLASSIFICATION_TYPE":"U","NORAD_CAT_ID":34297,"ELEMENT_SET_NO":999,"REV_AT_EPOCH":90010,"BSTAR":0.00011292485,"MEAN_MOTION_DOT":3.07e-6,"MEAN_MOTION_DDOT":0},{"OBJECT_NAME":"COSMOS 2251 DEB","OBJECT_ID":"1993-036MX","EPOCH":"2026-04-27T03:05:25.287360","MEAN_MOTION":14.92629073,"ECCENTRICITY":0.00062703,"INCLINATION":74.0014,"RA_OF_ASC_NODE":255.7609,"ARG_OF_PERICENTER":303.4832,"MEAN_ANOMALY":232.8008,"EPHEMERIS_TYPE":0,"CLASSIFICATION_TYPE":"U","NORAD_CAT_ID":34301,"ELEMENT_SET_NO":999,"REV_AT_EPOCH":90415,"BSTAR":0.0029957862,"MEAN_MOTION_DOT":0.00030972,"MEAN_MOTION_DDOT":0},{"OBJECT_NAME":"COSMOS 2251 DEB","OBJECT_ID":"1993-036MY","EPOCH":"2026-04-27T07:47:25.515168","MEAN_MOTION":14.40040324,"ECCENTRICITY":0.00775014,"INCLINATION":74.1777,"RA_OF_ASC_NODE":235.3135,"ARG_OF_PERICENTER":51.8735,"MEAN_ANOMALY":339.5485,"EPHEMERIS_TYPE":0,"CLASSIFICATION_TYPE":"U","NORAD_CAT_ID":34302,"ELEMENT_SET_NO":999,"REV_AT_EPOCH":89672,"BSTAR":0.00054238879,"MEAN_MOTION_DOT":1.746e-5,"MEAN_MOTION_DDOT":0},{"OBJECT_NAME":"COSMOS 2251 DEB","OBJECT_ID":"1993-036MZ","EPOCH":"2026-04-27T05:31:43.826304","MEAN_MOTION":14.56050041,"ECCENTRICITY":0.01354239,"INCLINATION":74.0063,"RA_OF_ASC_NODE":30.8268,"ARG_OF_PERICENTER":137.4145,"MEAN_ANOMALY":16.9789,"EPHEMERIS_TYPE":0,"CLASSIFICATION_TYPE":"U","NORAD_CAT_ID":34303,"ELEMENT_SET_NO":999,"REV_AT_EPOCH":89933,"BSTAR":0.0011483369,"MEAN_MOTION_DOT":5.702e-5,"MEAN_MOTION_DDOT":0},{"OBJECT_NAME":"COSMOS 2251 DEB","OBJECT_ID":"1993-036NA","EPOCH":"2026-04-27T07:30:14.933376","MEAN_MOTION":14.38934386,"ECCENTRICITY":0.01271999,"INCLINATION":74.0125,"RA_OF_ASC_NODE":232.267,"ARG_OF_PERICENTER":337.4775,"MEAN_ANOMALY":52.1999,"EPHEMERIS_TYPE":0,"CLASSIFICATION_TYPE":"U","NORAD_CAT_ID":34304,"ELEMENT_SET_NO":999,"REV_AT_EPOCH":89246,"BSTAR":0.00077100623,"MEAN_MOTION_DOT":2.584e-5,"MEAN_MOTION_DDOT":0},{"OBJECT_NAME":"COSMOS 2251 DEB","OBJECT_ID":"1993-036ND","EPOCH":"2026-04-26T09:33:08.483040","MEAN_MOTION":13.54551802,"ECCENTRICITY":0.03933935,"INCLINATION":74.0513,"RA_OF_ASC_NODE":96.9897,"ARG_OF_PERICENTER":258.4849,"MEAN_ANOMALY":258.7176,"EPHEMERIS_TYPE":0,"CLASSIFICATION_TYPE":"U","NORAD_CAT_ID":34307,"ELEMENT_SET_NO":999,"REV_AT_EPOCH":84685,"BSTAR":0.00072042396,"MEAN_MOTION_DOT":7.84e-6,"MEAN_MOTION_DDOT":0},{"OBJECT_NAME":"COSMOS 2251 DEB","OBJECT_ID":"1993-036NL","EPOCH":"2026-04-27T06:46:13.496160","MEAN_MOTION":14.17760753,"ECCENTRICITY":0.01039856,"INCLINATION":74.0052,"RA_OF_ASC_NODE":66.4223,"ARG_OF_PERICENTER":142.5626,"MEAN_ANOMALY":7.9405,"EPHEMERIS_TYPE":0,"CLASSIFICATION_TYPE":"U","NORAD_CAT_ID":34314,"ELEMENT_SET_NO":999,"REV_AT_EPOCH":88578,"BSTAR":0.00050687124,"MEAN_MOTION_DOT":1.065e-5,"MEAN_MOTION_DDOT":0},{"OBJECT_NAME":"COSMOS 2251 DEB","OBJECT_ID":"1993-036NN","EPOCH":"2026-04-27T06:48:29.746368","MEAN_MOTION":14.98284866,"ECCENTRICITY":0.00112558,"INCLINATION":74.0629,"RA_OF_ASC_NODE":63.9312,"ARG_OF_PERICENTER":156.7132,"MEAN_ANOMALY":203.4567,"EPHEMERIS_TYPE":0,"CLASSIFICATION_TYPE":"U","NORAD_CAT_ID":34316,"ELEMENT_SET_NO":999,"REV_AT_EPOCH":91235,"BSTAR":0.0022668642,"MEAN_MOTION_DOT":0.00027072,"MEAN_MOTION_DDOT":0},{"OBJECT_NAME":"COSMOS 2251 DEB","OBJECT_ID":"1993-036NP","EPOCH":"2026-04-27T04:45:16.480224","MEAN_MOTION":13.65329153,"ECCENTRICITY":0.03351441,"INCLINATION":73.9235,"RA_OF_ASC_NODE":172.7116,"ARG_OF_PERICENTER":136.9077,"MEAN_ANOMALY":285.2592,"EPHEMERIS_TYPE":0,"CLASSIFICATION_TYPE":"U","NORAD_CAT_ID":34317,"ELEMENT_SET_NO":999,"REV_AT_EPOCH":85468,"BSTAR":0.00017229383,"MEAN_MOTION_DOT":1.85e-6,"MEAN_MOTION_DDOT":0},{"OBJECT_NAME":"COSMOS 2251 DEB","OBJECT_ID":"1993-036NT","EPOCH":"2026-04-27T03:00:14.790816","MEAN_MOTION":14.50665104,"ECCENTRICITY":0.00151042,"INCLINATION":74.0275,"RA_OF_ASC_NODE":261.8572,"ARG_OF_PERICENTER":357.4568,"MEAN_ANOMALY":176.6518,"EPHEMERIS_TYPE":0,"CLASSIFICATION_TYPE":"U","NORAD_CAT_ID":34321,"ELEMENT_SET_NO":999,"REV_AT_EPOCH":90449,"BSTAR":0.0004103411,"MEAN_MOTION_DOT":1.586e-5,"MEAN_MOTION_DDOT":0},{"OBJECT_NAME":"COSMOS 2251 DEB","OBJECT_ID":"1993-036NV","EPOCH":"2026-04-27T06:21:19.611648","MEAN_MOTION":14.78532908,"ECCENTRICITY":0.00554264,"INCLINATION":73.952,"RA_OF_ASC_NODE":216.2026,"ARG_OF_PERICENTER":230.1748,"MEAN_ANOMALY":160.2982,"EPHEMERIS_TYPE":0,"CLASSIFICATION_TYPE":"U","NORAD_CAT_ID":34323,"ELEMENT_SET_NO":999,"REV_AT_EPOCH":90440,"BSTAR":0.002134568,"MEAN_MOTION_DOT":0.00016008,"MEAN_MOTION_DDOT":0},{"OBJECT_NAME":"COSMOS 2251 DEB","OBJECT_ID":"1993-036NX","EPOCH":"2026-04-27T07:59:38.829120","MEAN_MOTION":14.05262704,"ECCENTRICITY":0.01886658,"INCLINATION":73.871,"RA_OF_ASC_NODE":313.7372,"ARG_OF_PERICENTER":306.0764,"MEAN_ANOMALY":234.8985,"EPHEMERIS_TYPE":0,"CLASSIFICATION_TYPE":"U","NORAD_CAT_ID":34325,"ELEMENT_SET_NO":999,"REV_AT_EPOCH":87419,"BSTAR":0.00099550806,"MEAN_MOTION_DOT":1.863e-5,"MEAN_MOTION_DDOT":0},{"OBJECT_NAME":"COSMOS 2251 DEB","OBJECT_ID":"1993-036NZ","EPOCH":"2026-04-26T19:58:32.547360","MEAN_MOTION":14.92965318,"ECCENTRICITY":0.00311914,"INCLINATION":73.9916,"RA_OF_ASC_NODE":260.3544,"ARG_OF_PERICENTER":44.1753,"MEAN_ANOMALY":116.0233,"EPHEMERIS_TYPE":0,"CLASSIFICATION_TYPE":"U","NORAD_CAT_ID":34327,"ELEMENT_SET_NO":999,"REV_AT_EPOCH":91521,"BSTAR":0.0015246435,"MEAN_MOTION_DOT":0.00015986,"MEAN_MOTION_DDOT":0},{"OBJECT_NAME":"COSMOS 2251 DEB","OBJECT_ID":"1993-036PN","EPOCH":"2026-04-27T07:55:36.909984","MEAN_MOTION":13.80013659,"ECCENTRICITY":0.02895415,"INCLINATION":74.0755,"RA_OF_ASC_NODE":81.395,"ARG_OF_PERICENTER":158.9068,"MEAN_ANOMALY":351.9761,"EPHEMERIS_TYPE":0,"CLASSIFICATION_TYPE":"U","NORAD_CAT_ID":34340,"ELEMENT_SET_NO":999,"REV_AT_EPOCH":86138,"BSTAR":0.00061731749,"MEAN_MOTION_DOT":8.58e-6,"MEAN_MOTION_DDOT":0},{"OBJECT_NAME":"COSMOS 2251 DEB","OBJECT_ID":"1993-036PR","EPOCH":"2026-04-27T06:51:56.657952","MEAN_MOTION":14.71955358,"ECCENTRICITY":0.00192638,"INCLINATION":74.019,"RA_OF_ASC_NODE":186.1548,"ARG_OF_PERICENTER":64.4335,"MEAN_ANOMALY":357.9906,"EPHEMERIS_TYPE":0,"CLASSIFICATION_TYPE":"U","NORAD_CAT_ID":34343,"ELEMENT_SET_NO":999,"REV_AT_EPOCH":90723,"BSTAR":0.0011851464,"MEAN_MOTION_DOT":7.43e-5,"MEAN_MOTION_DDOT":0},{"OBJECT_NAME":"COSMOS 2251 DEB","OBJECT_ID":"1993-036PS","EPOCH":"2026-04-26T16:54:26.379072","MEAN_MOTION":14.17376001,"ECCENTRICITY":0.01537087,"INCLINATION":73.9761,"RA_OF_ASC_NODE":229.1925,"ARG_OF_PERICENTER":23.4074,"MEAN_ANOMALY":97.908,"EPHEMERIS_TYPE":0,"CLASSIFICATION_TYPE":"U","NORAD_CAT_ID":34344,"ELEMENT_SET_NO":999,"REV_AT_EPOCH":88008,"BSTAR":0.00080265951,"MEAN_MOTION_DOT":1.8e-5,"MEAN_MOTION_DDOT":0}]
