COSMOS 2251 DEB         
1 34297U 93036MT  26117.22148206  .00000307  00000+0  11292-3 0  9995
2 34297  74.0502  35.4273 0016145  75.1727  82.4588 14.36746277900107
COSMOS 2251 DEB         
1 34301U 93036MX  26117.12876490  .00030972  00000+0  29958-2 0  9991
2 34301  74.0014 255.7609 0006270 303.4832 232.8008 14.92629073904156
COSMOS 2251 DEB         
1 34302U 93036MY  26117.32460087  .00001746  00000+0  54239-3 0  9993
2 34302  74.1777 235.3135 0077501  51.8735 339.5485 14.40040324896729
COSMOS 2251 DEB         
1 34303U 93036MZ  26117.23036836  .00005702  00000+0  11483-2 0  9994
2 34303  74.0063  30.8268 0135423 137.4145  16.9789 14.56050041899333
COSMOS 2251 DEB         
1 34304U 93036NA  26117.31267284  .00002584  00000+0  77101-3 0  9992
2 34304  74.0125 232.2670 0127199 337.4775  52.1999 14.38934386892465
COSMOS 2251 DEB         
1 34307U 93036ND  26116.39801485  .00000784  00000+0  72042-3 0  9998
2 34307  74.0513  96.9897 0393393 258.4849 258.7176 13.54551802846858
COSMOS 2251 DEB         
1 34314U 93036NL  26117.28210065  .00001065  00000+0  50687-3 0  9997
2 34314  74.0052  66.4223 0103985 142.5626   7.9405 14.17760753885782
COSMOS 2251 DEB         
1 34316U 93036NN  26117.28367762  .00027072  00000+0  22669-2 0  9990
2 34316  74.0629  63.9312 0011255 156.7132 203.4567 14.98284866912353
COSMOS 2251 DEB         
1 34317U 93036NP  26117.19810741  .00000185  00000+0  17229-3 0  9994
2 34317  73.9235 172.7116 0335144 136.9077 285.2592 13.65329153854689
COSMOS 2251 DEB         
1 34321U 93036NT  26117.12517119  .00001586  00000+0  41034-3 0  9992
2 34321  74.0275 261.8572 0015104 357.4568 176.6518 14.50665104904492
COSMOS 2251 DEB         
1 34323U 93036NV  26117.26481032  .00016008  00000+0  21346-2 0  9991
2 34323  73.9520 216.2026 0055426 230.1748 160.2982 14.78532908904401
COSMOS 2251 DEB         
1 34325U 93036NX  26117.33308830  .00001863  00000+0  99551-3 0  9992
2 34325  73.8710 313.7372 0188665 306.0764 234.8985 14.05262704874190
COSMOS 2251 DEB         
1 34327U 93036NZ  26116.83232115  .00015986  00000+0  15246-2 0  9999
2 34327  73.9916 260.3544 0031191  44.1753 116.0233 14.92965318915211
COSMOS 2251 DEB         
1 34340U 93036PN  26117.33028831  .00000858  00000+0  61732-3 0  9992
2 34340  74.0755  81.3950 0289541 158.9068 351.9761 13.80013659861380
COSMOS 2251 DEB         
1 34343U 93036PR  26117.28607243  .00007430  00000+0  11851-2 0  9998
2 34343  74.0190 186.1548 0019263  64.4335 357.9906 14.71955358907237
COSMOS 2251 DEB         
1 34344U 93036PS  26116.70447198  .00001800  00000+0  80266-3 0  9998
2 34344  73.9761 229.1925 0153708  23.4074  97.9080 14.17376001880084
